C/2014 B1 (Schwartz),e,28.4001,161.4056,345.8241,60028,0.0000001,0.99984081,0.0000,09/09.8711/2017,2000,g  4.0,4.0
# From MPC102095
P/2014 C1 (TOTAS),e,2.6827,167.7870,24.1375,3.043212,0.1856547,0.44708848,72.5326,05/08.0/2020,2000,g 15.5,4.0
# From MPC 91614
P/2014 E1 (Larson),e,15.9764,39.0394,186.0033,3.712622,0.1377790,0.42362020,299.6318,05/08.0/2020,2000,g 14.0,4.0
# From MPC 94280
C/2014 F3 (Sheppard-Trujillo),e,6.5389,326.9162,2.3658,16.17657,0.0151487,0.64761292,354.4731,05/08.0/2020,2000,g  6.0,4.0
# From MPC105541
C/2014 HU195 (Valdes-TOTAS),e,5.8172,115.7377,145.3922,22.12904,0.0094680,0.76793828,17.1843,05/08.0/2020,2000,g 10.5,4.0
# From MPC 98560
P/2014 L2 (NEOWISE),e,5.1954,149.3534,182.6282,6.303874,0.0622720,0.64786991,132.0928,05/08.0/2020,2000,g 12.0,4.0
# From MPC 90769
P/2014 L3 (Hill),e,6.2775,115.4706,178.6101,8.163958,0.0422526,0.77396174,90.3324,05/08.0/2020,2000,g 16.0,4.0
# From MPC103844
C/2014 M1 (PANSTARRS),e,160.2194,234.7810,337.1474,11818,0.0000008,0.99952634,0.0000,08/27.7163/2015,2000,g  9.0,4.0
# From MPC 91614
P/2014 M4 (PANSTARRS),e,3.3345,263.2845,147.9677,5.876957,0.0691792,0.59354052,135.6931,05/08.0/2020,2000,g 15.0,4.0
# From MPC103844
P/2014 MG4 (Spacewatch-PANSTARRS),e,9.3708,311.7364,299.0674,5.011623,0.0878489,0.25999303,221.0334,05/08.0/2020,2000,g  9.5,4.0
# From MPC103844
C/2014 N3 (NEOWISE),e,61.6628,19.8382,353.4016,1595,0.0000155,0.99757308,0.0000,03/12.7138/2015,2000,g  7.0,4.0
# From MPC 98560
P/2014 O3 (PANSTARRS),e,7.8089,87.6400,204.5088,7.559175,0.0474234,0.38640741,104.7905,05/08.0/2020,2000,g 10.5,4.0
# From MPEC 2020-H67
C/2014 OE4 (PANSTARRS),h,12/12.5253/2016,81.3343,240.4015,65.8624,1.002652,6.247854,2000,11.0,2.0
# From MPC100578
C/2014 Q1 (PANSTARRS),e,43.0562,9.1022,119.9157,946.3570,0.0000339,0.99966337,0.0000,07/05.1203/2015,2000,g  8.0,4.0
# From MPEC 2020-H67
C/2014 R3 (PANSTARRS),e,90.9047,334.0924,113.4605,7935,0.0000014,0.99908304,0.0000,08/08.7405/2016,2000,g  6.5,4.0
# From MPC 91615
P/2014 R5 (Lemmon-PANSTARRS),e,1.0883,126.5514,213.7005,4.057259,0.1206021,0.41332235,259.5172,05/08.0/2020,2000,g 15.0,4.0
# From MPC104790
C/2014 S2 (PANSTARRS),e,64.4784,8.1145,87.3494,170.9322,0.0004410,0.98781665,0.0000,12/08.9921/2015,2000,g 10.0,4.0
# From MPC 91616
P/2014 U4 (PANSTARRS),e,6.4283,11.9386,347.7327,3.508028,0.1500063,0.46543498,317.7680,05/08.0/2020,2000,g 18.0,4.0
# From MPC 95211
P/2014 V1 (PANSTARRS),e,22.5065,166.2069,177.5505,5.482320,0.0767817,0.53382240,148.4165,05/08.0/2020,2000,g 14.0,4.0
# From MPC 93586
P/2014 W1 (PANSTARRS),e,8.8393,246.2456,152.3078,4.460446,0.1046253,0.38861705,221.6882,05/08.0/2020,2000,g 15.5,4.0
# From MPC110493
C/2014 W2 (PANSTARRS),e,82.0362,69.9666,84.9388,592.7899,0.0000683,0.99549142,0.0000,03/08.4565/2016,2000,g  7.5,4.0
# From MPC105542
P/2014 W4 (PANSTARRS),e,15.2683,33.3490,67.9469,6.602635,0.0580936,0.35208427,92.3684,05/08.0/2020,2000,g 11.0,4.0
# From MPEC 2020-H67
C/2014 W5 (Lemmon-PANSTARRS),e,145.6170,245.4616,281.3884,103.6622,0.0009338,0.97677722,0.0000,02/08.5881/2016,2000,g 10.0,4.0
# From MPC 95211
C/2014 W6 (Catalina),h,03/18.0075/2015,53.4826,338.2040,209.9461,1.001180,3.097695,2000,10.5,4.0
# From MPC 91616
C/2014 W8 (PANSTARRS),e,41.9649,224.8277,227.9807,169.5549,0.0004464,0.97039850,0.0000,09/08.7642/2015,2000,g 11.0,4.0
# From MPC115880
C/2014 W10 (PANSTARRS),e,82.8684,43.1268,43.6634,840.9372,0.0000404,0.99099244,0.0000,03/04.6323/2016,2000,g  8.0,4.0
# From MPC107047
C/2014 W11 (PANSTARRS),e,20.8836,294.9475,227.6148,9.590202,0.0331866,0.61394379,61.8122,05/08.0/2020,2000,g 10.0,4.0
# From MPC 93587
P/2014 W12 (Gibbs),e,8.5141,299.2897,36.9173,3.517610,0.1493938,0.52398328,299.1412,05/08.0/2020,2000,g 15.0,4.0
# From MPC 94281
P/2014 X1 (Elenin),e,25.9974,61.5004,34.0163,6.211730,0.0636627,0.70851847,124.3335,05/08.0/2020,2000,g 15.0,4.0
# From MPC 96866
C/2014 XB8 (PANSTARRS),e,149.7928,37.4779,351.2796,607.8806,0.0000658,0.99505790,0.0000,04/03.7824/2015,2000,g 13.5,4.0
# From MPC100579
C/2014 Y1 (PANSTARRS),h,01/16.6672/2016,14.9154,19.5337,182.3420,1.001628,2.251589,2000,9.5,4.0
# From MPC 96279
C/2015 A1 (PANSTARRS),e,80.1940,341.0247,244.9365,20.23551,0.0108276,0.90128524,20.3905,05/08.0/2020,2000,g 14.5,4.0
# From MPC 93587
C/2015 A2 (PANSTARRS),p,08/01.8353/2015,109.1696,208.8369,5.341055,258.5042,2000,10.5,4.0
# From MPC 92275
P/2015 A3 (PANSTARRS),e,172.5279,277.1586,249.2083,7.807153,0.0451820,0.85171578,86.0759,05/08.0/2020,2000,g 20.0,4.0
# From MPEC 2020-H67
P/2015 B1 (PANSTARRS),e,18.0251,353.0598,188.7666,9.502732,0.0336458,0.36934482,57.0328,05/08.0/2020,2000,g  8.5,4.0
# From MPC108592
C/2015 B2 (PANSTARRS),h,05/06.0080/2016,105.0107,341.8672,284.7158,1.000144,3.368644,2000,9.5,4.0
# From MPC109141
P/2015 B4 (Lemmon-PANSTARRS),e,1.7602,266.0257,227.5167,8.537838,0.0395077,0.56076370,75.7669,05/08.0/2020,2000,g 11.0,4.0
# From MPC101096
P/2015 C1 (TOTAS-Gibbs),e,13.8857,348.8317,178.3863,6.588847,0.0582760,0.56032034,106.9989,05/08.0/2020,2000,g 12.5,4.0
# From MPC 95211
C/2015 C2 (SWAN),e,94.5555,49.4833,333.9455,342.5053,0.0001555,0.99794105,0.0000,03/03.8843/2015,2000,g 14.0,4.0
# From MPEC 2020-H67
C/2015 D3 (PANSTARRS),h,05/03.0792/2016,128.5447,157.0423,2.9949,1.003873,8.148577,2000,5.5,4.0
# From MPC109141
P/2015 D5 (Kowalski),e,20.4938,74.0607,39.9752,8.978203,0.0366370,0.48891934,81.6304,05/08.0/2020,2000,g  9.0,4.0
# From MPC 96866
P/2015 D6 (Lemmon-PANSTARRS),e,20.2072,46.1029,125.2553,7.151292,0.0515380,0.36244854,91.0956,05/08.0/2020,2000,g 10.5,4.0
# From MPEC 2020-H67
C/2015 ER61 (PANSTARRS),e,6.3448,235.1961,68.2358,465.5885,0.0000981,0.99776237,0.0000,05/10.3335/2017,2000,g 11.0,2.0
# From MPEC 2018-BF5
C/2015 E61-B (PANSTARRS),e,6.3464,235.2311,68.3250,1188,0.0000241,0.99912184,0.0000,05/10.3111/2017,2000,g 13.5,2.0
# From MPC109142
P/2015 F1 (PANSTARRS),e,2.8025,40.4033,187.4206,3.523762,0.1490027,0.27823981,279.9300,05/08.0/2020,2000,g 12.5,4.0
# From MPC 98561
C/2015 F2 (Polonia),e,28.7260,262.4521,352.2394,39.19156,0.0040171,0.96898871,7.3739,05/08.0/2020,2000,g 16.5,4.0
# From MPC 96279
C/2015 F3 (SWAN),e,73.5705,31.7313,57.4416,179.0892,0.0004112,0.99533992,0.0000,03/07.3760/2015,2000,g 14.5,4.0
# From MPC115880
C/2015 F4 (Jacques),e,48.8078,285.9192,36.3214,117.5212,0.0007736,0.98604729,0.0000,08/11.9589/2015,2000,g 11.0,4.0
# From MPC 95212
C/2015 F5 (SWAN-Xingming),e,149.3819,287.7500,13.4815,15.57772,0.0160305,0.97758345,0.0000,03/28.5117/2015,2000,g 15.5,4.0
# From MPC102096
C/2015 GX (PANSTARRS),e,90.2599,235.4834,108.8063,16.16341,0.0151672,0.87865612,26.0171,05/08.0/2020,2000,g 14.0,4.0
# From MPC109142
C/2015 G2 (MASTER),h,05/24.9111/2015,147.6647,110.2528,257.6462,1.000627,0.778864,2000,11.0,4.0
# From MPC 98561
C/2015 H1 (Bressi),e,140.6802,325.8463,21.9484,32.06432,0.0054284,0.93952083,10.1451,05/08.0/2020,2000,g 13.5,4.0
# From MPC117068
C/2015 H2 (PANSTARRS),h,09/14.2444/2016,33.6668,350.6884,288.0425,1.005551,4.973864,2000,7.5,4.0
# From MPC100280
P/2015 HG16 (PANSTARRS),e,18.8412,59.1457,47.2501,4.751802,0.0951517,0.34941295,204.0302,05/08.0/2020,2000,g 12.5,4.0
# From MPC101096
C/2015 J2 (PANSTARRS),e,17.2731,56.7564,203.9040,295.1245,0.0001944,0.98531859,0.0000,09/10.0029/2015,2000,g 10.0,4.0
# From MPC 95733
P/2015 J3 (NEOWISE),e,8.1310,111.3516,129.4362,3.349242,0.1607993,0.55449162,303.8635,05/08.0/2020,2000,g 16.5,4.0
# From MPC 95733
C/2015 K2 (PANSTARRS),e,29.0759,223.7243,15.9494,307.2780,0.0001830,0.99523618,0.0000,06/08.8815/2015,2000,g 20.0,4.0
# From MPC 95733
C/2015 K4 (PANSTARRS),h,05/01.8539/2015,80.2576,250.7363,357.7420,1.000959,2.018355,2000,15.0,4.0
# From MPC 95213
P/2015 K5 (PANSTARRS),e,39.9462,134.1863,106.2897,6.717770,0.0566065,0.55403446,101.7534,05/08.0/2020,2000,g 13.5,4.0
# From MPC111767
C/2015 LC2 (PANSTARRS),h,05/02.3144/2015,93.7233,223.6068,342.0399,1.000452,5.906692,2000,8.0,4.0
# From MPC 95734
C/2015 M1 (PANSTARRS),e,57.3310,100.1728,164.1943,454.3599,0.0001018,0.99537866,0.0000,05/15.8773/2015,2000,g 16.5,4.0
# From MPC107684
P/2015 M2 (PANSTARRS),e,3.9735,86.5792,225.2243,7.223668,0.0507654,0.18108973,86.5758,05/08.0/2020,2000,g  8.5,4.0
# From MPC115881
C/2015 M3 (PANSTARRS),e,65.8750,143.0074,123.8867,138.6489,0.0006037,0.97433252,0.0000,08/26.2089/2015,2000,g 12.0,4.0
# From MPEC 2020-H67
C/2015 O1 (PANSTARRS),h,02/19.4254/2018,127.2248,299.8517,89.6419,1.000921,3.730582,2000,6.5,4.0
# From MPC 96280
C/2015 P3 (SWAN),e,58.1994,87.9935,133.1194,266.6244,0.0002264,0.99729018,0.0000,07/27.3936/2015,2000,g 15.5,4.0
# From MPC 99819
P/2015 P4 (PANSTARRS),e,8.7179,104.7681,280.5889,6.051657,0.0662053,0.58413597,104.0057,05/08.0/2020,2000,g 14.0,4.0
# From MPC102952
P/2015 PD229 (Cameron-ISON),e,2.0260,342.6467,352.3580,7.179440,0.0512352,0.32798730,88.5559,05/08.0/2020,2000,g 11.5,2.0
# From MPC 99819
P/2015 Q1 (Scotti),e,22.3972,203.0143,199.8681,3.470445,0.1524496,0.47865067,261.4185,05/08.0/2020,2000,g 14.0,4.0
# From MPC 96867
P/2015 Q2 (Pimentel),e,146.4729,228.3821,244.4228,7.344935,0.0495133,0.75118593,84.4565,05/08.0/2020,2000,g 15.5,4.0
# From MPC 98562
P/2015 R1 (PANSTARRS),e,22.6744,48.4724,300.3860,5.881150,0.0691052,0.63372823,122.7988,05/08.0/2020,2000,g 14.0,4.0
# From MPC 95734
P/2015 R2 (PANSTARRS),e,15.4736,168.6096,149.7121,4.489386,0.1036153,0.45262231,185.7781,05/08.0/2020,2000,g 14.5,4.0
# From MPEC 2020-H67
C/2015 T2 (PANSTARRS),e,124.5487,51.0451,30.6666,2509,0.0000078,0.99723622,0.0000,05/18.8080/2017,2000,g  8.0,4.0
# From MPC 96280
P/2015 T3 (PANSTARRS),e,13.0937,120.5019,178.6330,4.326181,0.1095335,0.50818108,359.9227,12/21.0/2014,2000,g 14.0,4.0
# From MPC102953
C/2015 T4 (PANSTARRS),e,87.9677,251.8036,270.0600,80.20208,0.0013722,0.97135177,0.0000,06/17.3426/2016,2000,g 11.0,4.0
# From MPC102097
C/2015 T5 (Sheppard-Tholen),e,11.0497,311.0752,61.8036,28.08327,0.0066227,0.66770004,10.3826,05/08.0/2020,2000,g  7.5,4.0
# From MPC102953
